STARLINK-36826          
1 67885U 26035G   26071.66668981  .00148162  00000+0  76369-3 0  9991
2 67885  97.2789   4.1843 0001265  81.6789 171.9092 15.80744105  4234
STARLINK-36390          
1 67886U 26035H   26071.66668981  .00100415  00000+0  52016-3 0  9994
2 67886  97.2774   4.1859 0001346  79.1006 178.7580 15.80765516  4281
STARLINK-36368          
1 67887U 26035J   26071.66668981  .00093478  00000+0  48448-3 0  9999
2 67887  97.2775   4.1877 0000856  83.0054 179.1185 15.80774274  4237
STARLINK-36801          
1 67888U 26035K   26071.66668981  .00100456  00000+0  52011-3 0  9996
2 67888  97.2758   4.1884 0000820  88.1197 178.2779 15.80776742  4233
STARLINK-36372          
1 67889U 26035L   26071.66668981  .00056090  00000+0  29178-3 0  9999
2 67889  97.2749   4.1908 0001242 106.4585 168.4653 15.80809130  4235
STARLINK-36363          
1 67890U 26035M   26071.66668981  .00096220  00000+0  49840-3 0  9998
2 67890  97.2769   4.1907 0000888  91.6132 179.0492 15.80779219  4239
STARLINK-36816          
1 67891U 26035N   26071.66668981  .00009552  00000+0  50586-4 0  9991
2 67891  97.2758   4.2111 0000931  91.0695 239.4606 15.80801074  4135
STARLINK-36813          
1 67892U 26035P   26071.66668981  .00043574  00000+0  22732-3 0  9995
2 67892  97.2733   4.1996 0001600  75.8999 228.9700 15.80793051  4234
STARLINK-36803          
1 67893U 26035Q   26071.66668981  .00089345  00000+0  46296-3 0  9993
2 67893  97.2756   4.1929 0000749  69.3548 209.8460 15.80790777  4230
STARLINK-36846          
1 67894U 26035R   26071.66668981  .00071216  00000+0  37008-3 0  9993
2 67894  97.2751   4.1951 0001507  91.0740 196.6804 15.80781995  4237
STARLINK-36866          
1 67895U 26035S   26071.66668981  .00088616  00000+0  45934-3 0  9993
2 67895  97.2744   4.1971 0000797  85.2704 206.7660 15.80785522  4230
STARLINK-36877          
1 67896U 26035T   26071.66668981  .00102536  00000+0  53093-3 0  9997
2 67896  97.2762   4.1939 0001567  84.4250 199.0644 15.80767936  4233
