CCSDS_OMM_VERS = 2.0
CREATION_DATE  = 
ORIGINATOR     = 

OBJECT_NAME    = STARLINK-36826
OBJECT_ID      = 2026-035G
CENTER_NAME    = EARTH
REF_FRAME      = TEME
TIME_SYSTEM    = UTC
MEAN_ELEMENT_THEORY = SGP/SGP4

EPOCH          = 2026-03-12T16:00:01.999584
MEAN_MOTION    = 15.80744105
ECCENTRICITY   = .0001265
INCLINATION    = 97.2789
RA_OF_ASC_NODE = 4.1843
ARG_OF_PERICENTER = 81.6789
MEAN_ANOMALY   = 171.9092

EPHEMERIS_TYPE = 0
CLASSIFICATION_TYPE = U
NORAD_CAT_ID   = 67885
ELEMENT_SET_NO = 999
REV_AT_EPOCH   = 423
BSTAR          = .76369E-3
MEAN_MOTION_DOT = .148162E-2
MEAN_MOTION_DDOT = 0

CCSDS_OMM_VERS = 2.0
CREATION_DATE  = 
ORIGINATOR     = 

OBJECT_NAME    = STARLINK-36390
OBJECT_ID      = 2026-035H
CENTER_NAME    = EARTH
REF_FRAME      = TEME
TIME_SYSTEM    = UTC
MEAN_ELEMENT_THEORY = SGP/SGP4

EPOCH          = 2026-03-12T16:00:01.999584
MEAN_MOTION    = 15.80765516
ECCENTRICITY   = .0001346
INCLINATION    = 97.2774
RA_OF_ASC_NODE = 4.1859
ARG_OF_PERICENTER = 79.1006
MEAN_ANOMALY   = 178.7580

EPHEMERIS_TYPE = 0
CLASSIFICATION_TYPE = U
NORAD_CAT_ID   = 67886
ELEMENT_SET_NO = 999
REV_AT_EPOCH   = 428
BSTAR          = .52016E-3
MEAN_MOTION_DOT = .100415E-2
MEAN_MOTION_DDOT = 0

CCSDS_OMM_VERS = 2.0
CREATION_DATE  = 
ORIGINATOR     = 

OBJECT_NAME    = STARLINK-36368
OBJECT_ID      = 2026-035J
CENTER_NAME    = EARTH
REF_FRAME      = TEME
TIME_SYSTEM    = UTC
MEAN_ELEMENT_THEORY = SGP/SGP4

EPOCH          = 2026-03-12T16:00:01.999584
MEAN_MOTION    = 15.80774274
ECCENTRICITY   = .0000856
INCLINATION    = 97.2775
RA_OF_ASC_NODE = 4.1877
ARG_OF_PERICENTER = 83.0054
MEAN_ANOMALY   = 179.1185

EPHEMERIS_TYPE = 0
CLASSIFICATION_TYPE = U
NORAD_CAT_ID   = 67887
ELEMENT_SET_NO = 999
REV_AT_EPOCH   = 423
BSTAR          = .48448E-3
MEAN_MOTION_DOT = .93478E-3
MEAN_MOTION_DDOT = 0

CCSDS_OMM_VERS = 2.0
CREATION_DATE  = 
ORIGINATOR     = 

OBJECT_NAME    = STARLINK-36801
OBJECT_ID      = 2026-035K
CENTER_NAME    = EARTH
REF_FRAME      = TEME
TIME_SYSTEM    = UTC
MEAN_ELEMENT_THEORY = SGP/SGP4

EPOCH          = 2026-03-12T16:00:01.999584
MEAN_MOTION    = 15.80776742
ECCENTRICITY   = .000082
INCLINATION    = 97.2758
RA_OF_ASC_NODE = 4.1884
ARG_OF_PERICENTER = 88.1197
MEAN_ANOMALY   = 178.2779

EPHEMERIS_TYPE = 0
CLASSIFICATION_TYPE = U
NORAD_CAT_ID   = 67888
ELEMENT_SET_NO = 999
REV_AT_EPOCH   = 423
BSTAR          = .52011E-3
MEAN_MOTION_DOT = .100456E-2
MEAN_MOTION_DDOT = 0

CCSDS_OMM_VERS = 2.0
CREATION_DATE  = 
ORIGINATOR     = 

OBJECT_NAME    = STARLINK-36372
OBJECT_ID      = 2026-035L
CENTER_NAME    = EARTH
REF_FRAME      = TEME
TIME_SYSTEM    = UTC
MEAN_ELEMENT_THEORY = SGP/SGP4

EPOCH          = 2026-03-12T16:00:01.999584
MEAN_MOTION    = 15.80809130
ECCENTRICITY   = .0001242
INCLINATION    = 97.2749
RA_OF_ASC_NODE = 4.1908
ARG_OF_PERICENTER = 106.4585
MEAN_ANOMALY   = 168.4653

EPHEMERIS_TYPE = 0
CLASSIFICATION_TYPE = U
NORAD_CAT_ID   = 67889
ELEMENT_SET_NO = 999
REV_AT_EPOCH   = 423
BSTAR          = .29178E-3
MEAN_MOTION_DOT = .5609E-3
MEAN_MOTION_DDOT = 0

CCSDS_OMM_VERS = 2.0
CREATION_DATE  = 
ORIGINATOR     = 

OBJECT_NAME    = STARLINK-36363
OBJECT_ID      = 2026-035M
CENTER_NAME    = EARTH
REF_FRAME      = TEME
TIME_SYSTEM    = UTC
MEAN_ELEMENT_THEORY = SGP/SGP4

EPOCH          = 2026-03-12T16:00:01.999584
MEAN_MOTION    = 15.80779219
ECCENTRICITY   = .0000888
INCLINATION    = 97.2769
RA_OF_ASC_NODE = 4.1907
ARG_OF_PERICENTER = 91.6132
MEAN_ANOMALY   = 179.0492

EPHEMERIS_TYPE = 0
CLASSIFICATION_TYPE = U
NORAD_CAT_ID   = 67890
ELEMENT_SET_NO = 999
REV_AT_EPOCH   = 423
BSTAR          = .4984E-3
MEAN_MOTION_DOT = .9622E-3
MEAN_MOTION_DDOT = 0

CCSDS_OMM_VERS = 2.0
CREATION_DATE  = 
ORIGINATOR     = 

OBJECT_NAME    = STARLINK-36816
OBJECT_ID      = 2026-035N
CENTER_NAME    = EARTH
REF_FRAME      = TEME
TIME_SYSTEM    = UTC
MEAN_ELEMENT_THEORY = SGP/SGP4

EPOCH          = 2026-03-12T16:00:01.999584
MEAN_MOTION    = 15.80801074
ECCENTRICITY   = .0000931
INCLINATION    = 97.2758
RA_OF_ASC_NODE = 4.2111
ARG_OF_PERICENTER = 91.0695
MEAN_ANOMALY   = 239.4606

EPHEMERIS_TYPE = 0
CLASSIFICATION_TYPE = U
NORAD_CAT_ID   = 67891
ELEMENT_SET_NO = 999
REV_AT_EPOCH   = 413
BSTAR          = .50586E-4
MEAN_MOTION_DOT = .9552E-4
MEAN_MOTION_DDOT = 0

CCSDS_OMM_VERS = 2.0
CREATION_DATE  = 
ORIGINATOR     = 

OBJECT_NAME    = STARLINK-36813
OBJECT_ID      = 2026-035P
CENTER_NAME    = EARTH
REF_FRAME      = TEME
TIME_SYSTEM    = UTC
MEAN_ELEMENT_THEORY = SGP/SGP4

EPOCH          = 2026-03-12T16:00:01.999584
MEAN_MOTION    = 15.80793051
ECCENTRICITY   = .00016
INCLINATION    = 97.2733
RA_OF_ASC_NODE = 4.1996
ARG_OF_PERICENTER = 75.8999
MEAN_ANOMALY   = 228.9700

EPHEMERIS_TYPE = 0
CLASSIFICATION_TYPE = U
NORAD_CAT_ID   = 67892
ELEMENT_SET_NO = 999
REV_AT_EPOCH   = 423
BSTAR          = .22732E-3
MEAN_MOTION_DOT = .43574E-3
MEAN_MOTION_DDOT = 0

CCSDS_OMM_VERS = 2.0
CREATION_DATE  = 
ORIGINATOR     = 

OBJECT_NAME    = STARLINK-36803
OBJECT_ID      = 2026-035Q
CENTER_NAME    = EARTH
REF_FRAME      = TEME
TIME_SYSTEM    = UTC
MEAN_ELEMENT_THEORY = SGP/SGP4

EPOCH          = 2026-03-12T16:00:01.999584
MEAN_MOTION    = 15.80790777
ECCENTRICITY   = .0000749
INCLINATION    = 97.2756
RA_OF_ASC_NODE = 4.1929
ARG_OF_PERICENTER = 69.3548
MEAN_ANOMALY   = 209.8460

EPHEMERIS_TYPE = 0
CLASSIFICATION_TYPE = U
NORAD_CAT_ID   = 67893
ELEMENT_SET_NO = 999
REV_AT_EPOCH   = 423
BSTAR          = .46296E-3
MEAN_MOTION_DOT = .89345E-3
MEAN_MOTION_DDOT = 0

CCSDS_OMM_VERS = 2.0
CREATION_DATE  = 
ORIGINATOR     = 

OBJECT_NAME    = STARLINK-36846
OBJECT_ID      = 2026-035R
CENTER_NAME    = EARTH
REF_FRAME      = TEME
TIME_SYSTEM    = UTC
MEAN_ELEMENT_THEORY = SGP/SGP4

EPOCH          = 2026-03-12T16:00:01.999584
MEAN_MOTION    = 15.80781995
ECCENTRICITY   = .0001507
INCLINATION    = 97.2751
RA_OF_ASC_NODE = 4.1951
ARG_OF_PERICENTER = 91.0740
MEAN_ANOMALY   = 196.6804

EPHEMERIS_TYPE = 0
CLASSIFICATION_TYPE = U
NORAD_CAT_ID   = 67894
ELEMENT_SET_NO = 999
REV_AT_EPOCH   = 423
BSTAR          = .37008E-3
MEAN_MOTION_DOT = .71216E-3
MEAN_MOTION_DDOT = 0

CCSDS_OMM_VERS = 2.0
CREATION_DATE  = 
ORIGINATOR     = 

OBJECT_NAME    = STARLINK-36866
OBJECT_ID      = 2026-035S
CENTER_NAME    = EARTH
REF_FRAME      = TEME
TIME_SYSTEM    = UTC
MEAN_ELEMENT_THEORY = SGP/SGP4

EPOCH          = 2026-03-12T16:00:01.999584
MEAN_MOTION    = 15.80785522
ECCENTRICITY   = .0000797
INCLINATION    = 97.2744
RA_OF_ASC_NODE = 4.1971
ARG_OF_PERICENTER = 85.2704
MEAN_ANOMALY   = 206.7660

EPHEMERIS_TYPE = 0
CLASSIFICATION_TYPE = U
NORAD_CAT_ID   = 67895
ELEMENT_SET_NO = 999
REV_AT_EPOCH   = 423
BSTAR          = .45934E-3
MEAN_MOTION_DOT = .88616E-3
MEAN_MOTION_DDOT = 0

CCSDS_OMM_VERS = 2.0
CREATION_DATE  = 
ORIGINATOR     = 

OBJECT_NAME    = STARLINK-36877
OBJECT_ID      = 2026-035T
CENTER_NAME    = EARTH
REF_FRAME      = TEME
TIME_SYSTEM    = UTC
MEAN_ELEMENT_THEORY = SGP/SGP4

EPOCH          = 2026-03-12T16:00:01.999584
MEAN_MOTION    = 15.80767936
ECCENTRICITY   = .0001567
INCLINATION    = 97.2762
RA_OF_ASC_NODE = 4.1939
ARG_OF_PERICENTER = 84.4250
MEAN_ANOMALY   = 199.0644

EPHEMERIS_TYPE = 0
CLASSIFICATION_TYPE = U
NORAD_CAT_ID   = 67896
ELEMENT_SET_NO = 999
REV_AT_EPOCH   = 423
BSTAR          = .53093E-3
MEAN_MOTION_DOT = .102536E-2
MEAN_MOTION_DDOT = 0

